ORBCOMM FM37            
1 33064U 08031E   25282.92298964  .00001821  00000+0  26464-3 0  9992
2 33064  48.4380 158.0200 0005153 152.5172 280.5010 14.80218787931047
ORBCOMM FM40            
1 33065U 08031F   25282.93704920  .00002351  00000+0  31554-3 0  9993
2 33065  48.4395 140.0245 0006419 167.1958 325.0444 14.82601919931180
VESSELSAT 1             
1 37840U 11058C   25282.91704035  .00000388  00000+0  66785-4 0  9999
2 37840  19.9612 119.6422 0013647   8.9294 351.1351 14.11378129722535
ORBCOMM FM109           
1 40086U 14040A   25282.87994068  .00000840  00000+0  21598-3 0  9996
2 40086  47.0029 194.5513 0001126 167.4092 192.6822 14.58372272597809
ORBCOMM FM107           
1 40087U 14040B   25282.76557930  .00000796  00000+0  20634-3 0  9998
2 40087  47.0047 196.0081 0000614  52.9520 307.1422 14.58449469597860
ORBCOMM FM106           
1 40088U 14040C   25282.58681529  .00001497  00000+0  27932-3 0  9998
2 40088  47.0610   9.7618 0017630 239.6296 120.2852 14.69762060600305
ORBCOMM FM111           
1 40089U 14040D   25282.80730730  .00004226  00000+0  48604-3 0  9995
2 40089  47.0003 203.2482 0029424  20.8244 339.3845 14.87077294607286
ORBCOMM FM104           
1 40090U 14040E   25282.88042539  .00000902  00000+0  23685-3 0  9997
2 40090  47.0044 230.4612 0016493   6.1642 353.9443 14.56838662597342
